[{"OBJECT_NAME":"STARLINK-3660","OBJECT_ID":"2022-025X","EPOCH":"2026-03-09T05:17:47.321376","MEAN_MOTION":15.08834026,"ECCENTRICITY":0.0001665,"INCLINATION":53.2185,"RA_OF_ASC_NODE":21.2343,"ARG_OF_PERICENTER":92.0812,"MEAN_ANOMALY":268.0371,"EPHEMERIS_TYPE":0,"CLASSIFICATION_TYPE":"U","NORAD_CAT_ID":51977,"ELEMENT_SET_NO":999,"REV_AT_EPOCH":22126,"BSTAR":4.1805961e-5,"MEAN_MOTION_DOT":3.77e-6,"MEAN_MOTION_DDOT":0},{"OBJECT_NAME":"NOAA 17 DEB","OBJECT_ID":"2002-032BW","EPOCH":"2026-03-08T22:40:23.580768","MEAN_MOTION":15.05196658,"ECCENTRICITY":0.00149213,"INCLINATION":98.7181,"RA_OF_ASC_NODE":121.0481,"ARG_OF_PERICENTER":217.4424,"MEAN_ANOMALY":142.5761,"EPHEMERIS_TYPE":0,"CLASSIFICATION_TYPE":"U","NORAD_CAT_ID":48737,"ELEMENT_SET_NO":999,"REV_AT_EPOCH":26108,"BSTAR":0.0055556624,"MEAN_MOTION_DOT":0.00080221,"MEAN_MOTION_DDOT":0}]
